GALAXY 25 (G-25)    [PM]
1 24812C 97026A   22343.63047454  .00000165  00000-0  00000-0 0  3433
2 24812   4.1276  81.9308 0001430 248.0982  32.9153  0.99082281    12
GALAXY 25 (G-25)        
1 24812C 97026A   22346.00000000  .00000217  00000-0  00000-0 0  3464
2 24812   4.1316  81.9463 0000873  75.5660 330.4125  0.99034829    15
GALAXY 25 (G-25)        
1 24812C 97026A   22349.00000000  .00000234  00000-0  00000-0 0  3499
2 24812   4.1360  81.9039 0000745  56.1690 339.4258  0.99036422    16
INTELSAT 5 (IS-5)   [PM]
1 24916C 97046A   22342.63861111  .00000034  00000-0  00000-0 0  3427
2 24916   7.6019  59.8278 0004507 178.5116 235.0707  1.00273909    17
INTELSAT 5 (IS-5)       
1 24916C 97046A   22346.00000000  .00000034  00000-0  00000-0 0  3468
2 24916   7.6056  59.7995 0007588 212.4498 334.5616  1.00274874    12
INTELSAT 5 (IS-5)       
1 24916C 97046A   22349.00000000  .00000034  00000-0  00000-0 0  3494
2 24916   7.6087  59.7687 0007392 214.7894 335.2080  1.00274967    18
GALAXY 11 (G-11)        
1 26038C 99071A   22345.93002315 -.00000072  00000-0  00000-0 0  3459
2 26038   3.4714  85.4307 0002593 217.3104  19.5798  1.00271003    18
GALAXY 11 (G-11)        
1 26038C 99071A   22348.97597222 -.00000072  00000-0  00000-0 0  3485
2 26038   3.4758  85.3995 0002474 219.1030  37.3649  1.00269680    15
INTELSAT 9 (IS-9)   [PM]
1 26451C 00043A   22329.74646991 -.00000191  00000-0  00000-0 0  3298
2 26451   7.5591  60.0843 0005075 197.9447  25.3544  1.00275656    12
INTELSAT 9 (IS-9)       
1 26451C 00043A   22346.00000000 -.00000191  00000-0  00000-0 0  3460
2 26451   7.5906  59.9898 0004650 172.6200 158.0744  1.00268663    10
INTELSAT 9 (IS-9)       
1 26451C 00043A   22349.00000000 -.00000191  00000-0  00000-0 0  3496
2 26451   7.5945  59.9532 0004234 168.7118 164.9835  1.00271656    13
INTELSAT 1R (IS-1R)     
1 26608C 00072A   22345.93002315 -.00000047  00000-0  00000-0 0  3457
2 26608   4.8423  78.8637 0000998 284.6558 209.0170  1.00269519    11
INTELSAT 1R (IS-1R)     
1 26608C 00072A   22348.97597222 -.00000047  00000-0  00000-0 0  3483
2 26608   4.8461  78.7877 0001268 281.2895 231.9956  1.00269707    11
INTELSAT 10 (IS-10) [PM]
1 26766C 01019A   22340.75430556  .00000127  00000-0  00000-0 0  3404
2 26766   5.9889  71.8647 0002718 189.8583 263.1606  1.00268907    19
INTELSAT 10 (IS-10)     
1 26766C 01019A   22346.00000000  .00000127  00000-0  00000-0 0  3461
2 26766   5.9987  71.8311 0005241 208.3595 338.2750  1.00273476    11
INTELSAT 10 (IS-10)     
1 26766C 01019A   22349.00000000  .00000127  00000-0  00000-0 0  3497
2 26766   6.0025  71.7950 0005072 211.8613 337.7686  1.00274084    14
INTELSAT 901            
1 26824C 01024A   22346.00000000 -.00000112  00000-0  00000-0 0  3467
2 26824   0.0153  58.8307 0001024 221.6427 132.7214  1.00270499    18
INTELSAT 901            
1 26824C 01024A   22349.00000000 -.00000112  00000-0  00000-0 0  3493
2 26824   0.0196  69.3033 0000662 294.2847  52.5696  1.00269882    14
INTELSAT 902            
1 26900C 01039A   22346.00000000 -.00000192  00000-0  00000-0 0  3466
2 26900   2.8522  87.0505 0004196 184.3305 119.1977  1.00274155    18
INTELSAT 902            
1 26900C 01039A   22349.00000000 -.00000192  00000-0  00000-0 0  3492
2 26900   2.8562  87.0202 0003914 187.5555 118.9725  1.00270611    16
INTELSAT 902        [PM]
1 26900C 01039A   22353.41440972 -.00000192  00000-0  00000-0 0  3533
2 26900   2.8777 234.5069 0003339 187.9613 124.6172  1.00272788    11
INTELSAT 904            
1 27380C 02007A   22346.00000000 -.00000123  00000-0  00000-0 0  3469
2 27380   3.6816  84.0594 0003588 178.1517 148.9728  1.00271402    17
INTELSAT 904            
1 27380C 02007A   22349.00000000 -.00000123  00000-0  00000-0 0  3495
2 27380   3.6855  84.0275 0003317 182.9255 147.1908  1.00270420    18
INTELSAT 904        [PM]
1 27380C 02007A   22351.82369213 -.00000123  00000-0  00000-0 0  3515
2 27380   3.6923  83.9436 0003561 188.7790  80.7268  1.00271921    18
INTELSAT 905        [PM]
1 27438C 02027A   22344.34269676 -.00000094  00000-0  00000-0 0  3441
2 27438   3.5239 206.7780 0003057 165.3543 165.7885  1.00273419    18
INTELSAT 905            
1 27438C 02027A   22346.00000000 -.00000094  00000-0  00000-0 0  3462
2 27438   3.5044  84.7875 0003312 164.1575 167.2411  1.00272600    10
INTELSAT 905            
1 27438C 02027A   22349.00000000 -.00000094  00000-0  00000-0 0  3498
2 27438   3.5082  84.7534 0002971 167.7791 166.6240  1.00271762    14
GALAXY 3C (G-3C)        
1 27445C 02030A   22345.93002315 -.00000062  00000-0  00000-0 0  3450
2 27445   0.4310  92.0741 0001603 213.7396  14.7834  1.00271462    17
GALAXY 3C (G-3C)        
1 27445C 02030A   22348.97597222 -.00000062  00000-0  00000-0 0  3486
2 27445   0.4350  92.1846 0001501 222.6047  25.3566  1.00270721    14
INTELSAT 906        [PM]
1 27513C 02041A   22340.16901620  .00000105  00000-0  00000-0 0  3407
2 27513   2.5274 147.8900 0005205 166.1198 245.9219  1.00270649    15
INTELSAT 906            
1 27513C 02041A   22346.00000000  .00000105  00000-0  00000-0 0  3464
2 27513   2.5224  88.4767 0005055 169.4411 246.9021  1.00271874    11
INTELSAT 906            
1 27513C 02041A   22349.00000000  .00000105  00000-0  00000-0 0  3490
2 27513   2.5264  88.4489 0004791 173.2113 246.1186  1.00271704    10
GALAXY 12 (G-12)        
1 27715C 03013B   22346.00000000  .00000149  00000-0  00000-0 0  3466
2 27715   3.7145  83.7202 0002572 191.7655  36.2008  1.00272490    11
GALAXY 12 (G-12)        
1 27715C 03013B   22349.00000000  .00000149  00000-0  00000-0 0  3492
2 27715   3.7184  83.6875 0002376 194.8604  36.1003  1.00271225    18
GALAXY 12 (G-12)    [PM]
1 27715C 03013B   22354.61471065  .00000149  00000-0  00000-0 0  3544
2 27715   3.7363  83.5591 0000967 208.5678 249.3584  1.00269344    10
GALAXY 23 (G-23)    [PM]
1 27854C 03034A   22343.46719907  .00000088  00000-0  00000-0 0  3432
2 27854   0.0002 223.2644 0003067 200.5984  61.5251  1.00271000    19
GALAXY 23 (G-23)        
1 27854C 03034A   22346.00000000  .00000099  00000-0  00000-0 0  3467
2 27854   0.0349 129.0230 0003047 131.5328  59.1343  1.00270954    12
GALAXY 23 (G-23)        
1 27854C 03034A   22349.00000000  .00000107  00000-0  00000-0 0  3493
2 27854   0.0041 273.0569 0002829 353.3651  56.2276  1.00271106    19
GALAXY 13               
1 27954C 03044A   22346.00000000  .00000138  00000-0  00000-0 0  3463
2 27954   0.0181  65.9470 0002685 122.8381 124.8897  1.00268927    11
GALAXY 13               
1 27954C 03044A   22349.00000000  .00000138  00000-0  00000-0 0  3499
2 27954   0.0227  93.2688 0001091  90.8812 132.4841  1.00269530    15
INTELSAT 10-02          
1 28358C 04022A   22345.93002315  .00000072  00000-0  00000-0 0  3457
2 28358   0.0013 344.1383 0001366 321.0030 109.2986  1.00269969    11
INTELSAT 10-02          
1 28358C 04022A   22348.97597222  .00000086  00000-0  00000-0 0  3488
2 28358   0.0035 318.6563 0001253 351.9254 123.4124  1.00269917    11
GALAXY 28 (G-28)        
1 28702C 05022A   22345.93002315 -.00000096  00000-0  00000-0 0  3458
2 28702   0.0415  74.8142 0002753 205.1651  46.4573  1.00271311    10
GALAXY 28 (G-28)        
1 28702C 05022A   22348.97597222 -.00000095  00000-0  00000-0 0  3483
2 28702   0.0148 328.5101 0002807 321.0016  56.4602  1.00268273    17
GALAXY 28 (G-28)    [PM]
1 28702C 05022A   22349.08460648 -.00000094  00000-0  00000-0 0  3497
2 28702   0.0147 328.7397 0002821 315.4241 101.0224  1.00272300    11
GALAXY 14 (G-14)        
1 28790C 05030A   22346.00000000  .00000246  00000-0  00000-0 0  3469
2 28790   1.7118  90.3294 0002035 166.7864 216.4721  1.00273474    13
GALAXY 14 (G-14)    [PM]
1 28790C 05030A   22347.40833333  .00000246  00000-0  00000-0 0  3478
2 28790   1.7136  90.3332 0002220 177.2251 354.4304  1.00269269    16
GALAXY 14 (G-14)    [PM]
1 28790C 05030A   22348.94097222  .00000246  00000-0  00000-0 0  3488
2 28790   1.7156  90.3112 0002128 172.2541 192.6745  1.00269830    13
GALAXY 14 (G-14)        
1 28790C 05030A   22349.00000000  .00000246  00000-0  00000-0 0  3495
2 28790   1.7158  90.3090 0002099 173.5008 212.7376  1.00269916    18
GALAXY 15 (G-15)        
1 28884C 05041A   22346.00000000  .00000121  00000-0  00000-0 0  3467
2 28884   0.2670  92.7685 0004837 182.3148  41.5511  1.00310170    14
GALAXY 15 (G-15)        
1 28884C 05041A   22349.00000000  .00000119  00000-0  00000-0 0  3490
2 28884   0.2705  92.7945 0004605 185.5058  41.7180  1.00310629    13
GALAXY 16 (G-16)        
1 29236C 06023A   22346.00000000 -.00000053  00000-0  00000-0 0  3465
2 29236   0.0000 313.8352 0002997 306.7236  81.1336  1.00271118    17
GALAXY 16 (G-16)    [PM]
1 29236C 06023A   22348.02516204 -.00000045  00000-0  00000-0 0  3480
2 29236   0.0320 165.2964 0002880  98.8830  88.5677  1.00272022    14
GALAXY 16 (G-16)        
1 29236C 06023A   22349.00000000 -.00000077  00000-0  00000-0 0  3497
2 29236   0.0293 156.8278 0002783 109.2817  78.5443  1.00271813    18
GALAXY 17 (G-17)        
1 31307C 07016B   22346.00000000 -.00000084  00000-0  00000-0 0  3464
2 31307   0.0139   1.4532 0003475 279.0022  69.2389  1.00270806    17
GALAXY 17 (G-17)    [PM]
1 31307C 07016B   22348.96298611 -.00000084  00000-0  00000-0 0  3480
2 31307   0.0138  14.9303 0003286 269.4242  54.9311  1.00272532    12
GALAXY 17 (G-17)        
1 31307C 07016B   22349.00000000 -.00000084  00000-0  00000-0 0  3490
2 31307   0.0138  14.9569 0003292 269.3788  68.3114  1.00272538    13
INTELSAT 11 (IS-11)     
1 32253C 07044B   22346.00000000 -.00000178  00000-0  00000-0 0  3460
2 32253   0.2401  94.2521 0003625 189.3329 114.1083  1.00270883    16
INTELSAT 11 (IS-11) [PM]
1 32253C 07044B   22347.85136574 -.00000178  00000-0  00000-0 0  3471
2 32253   0.2427  94.4657 0003476 190.5294  61.0111  1.00272119    11
